start=new Date('2023-07-01T00:00:00.000Z').valueOf();
sats=[{"RA_OF_ASC_NODE":"27.0067","CLASSIFICATION_TYPE":"U","REV_AT_EPOCH":"8141","RCS_SIZE":"LARGE","COUNTRY_CODE":"US","BSTAR":"0.00011055000000","OBJECT_ID":"2022-005N","OBJECT_NAME":"STARLINK-3243","LAUNCH_DATE":"2022-01-19","DECAY_DATE":null,"GP_ID":"234630243","SEMIMAJOR_AXIS":"6917.890","REF_FRAME":"TEME","APOAPSIS":"540.567","ELEMENT_SET_NO":"999","MEAN_ELEMENT_THEORY":"SGP4","PERIAPSIS":"538.944","MEAN_ANOMALY":"268.8749","FILE":"3945942","SITE":"AFETR","MEAN_MOTION_DOT":"0.00001472","NORAD_CAT_ID":"51116","EPOCH":"2023-06-29T13:32:01.049856","TLE_LINE2":"2 51116  53.2180  27.0067 0001173  91.2378 268.8749 15.08836811 81418","ARG_OF_PERICENTER":"91.2378","TLE_LINE1":"1 51116U 22005N   23180.56390104  .00001472  00000-0  11055-3 0  9994","CENTER_NAME":"EARTH","TIME_SYSTEM":"UTC","ECCENTRICITY":"0.00011730","EPHEMERIS_TYPE":"0","PERIOD":"95.438","OBJECT_TYPE":"PAYLOAD","INCLINATION":"53.2180","MEAN_MOTION":"15.08836811","MEAN_MOTION_DDOT":"0.0000000000000"},{"DECAY_DATE":null,"GP_ID":"234623430","SEMIMAJOR_AXIS":"6917.890","OBJECT_NAME":"STARLINK-3391","LAUNCH_DATE":"2022-01-19","MEAN_ELEMENT_THEORY":"SGP4","APOAPSIS":"540.542","REF_FRAME":"TEME","ELEMENT_SET_NO":"999","CLASSIFICATION_TYPE":"U","RA_OF_ASC_NODE":"30.1086","COUNTRY_CODE":"US","OBJECT_ID":"2022-005P","BSTAR":"0.00000853310000","RCS_SIZE":"LARGE","REV_AT_EPOCH":"8131","OBJECT_TYPE":"PAYLOAD","MEAN_MOTION_DDOT":"0.0000000000000","MEAN_MOTION":"15.08836716","INCLINATION":"53.2180","PERIOD":"95.438","FILE":"3945692","SITE":"AFETR","MEAN_ANOMALY":"267.8284","PERIAPSIS":"538.969","TLE_LINE1":"1 51117U 22005P   23179.87205923 -.00000152  00000-0  85331-5 0  9996","ARG_OF_PERICENTER":"92.2839","ECCENTRICITY":"0.00011370","EPHEMERIS_TYPE":"0","CENTER_NAME":"EARTH","TIME_SYSTEM":"UTC","NORAD_CAT_ID":"51117","MEAN_MOTION_DOT":"-0.00000152","TLE_LINE2":"2 51117  53.2180  30.1086 0001137  92.2839 267.8284 15.08836716 81314","EPOCH":"2023-06-28T20:55:45.917472"},{"CLASSIFICATION_TYPE":"U","RA_OF_ASC_NODE":"22.6124","COUNTRY_CODE":"US","BSTAR":"0.00006215800000","OBJECT_ID":"2022-005Q","REV_AT_EPOCH":"8156","RCS_SIZE":"LARGE","DECAY_DATE":null,"GP_ID":"234636835","SEMIMAJOR_AXIS":"6917.874","OBJECT_NAME":"STARLINK-3394","LAUNCH_DATE":"2022-01-19","MEAN_ELEMENT_THEORY":"SGP4","REF_FRAME":"TEME","APOAPSIS":"540.255","ELEMENT_SET_NO":"999","FILE":"3946213","SITE":"AFETR","PERIAPSIS":"539.222","MEAN_ANOMALY":"276.9141","ARG_OF_PERICENTER":"83.1936","TLE_LINE1":"1 51118U 22005Q   23181.54918552  .00000702  00000-0  62158-4 0  9994","CENTER_NAME":"EARTH","TIME_SYSTEM":"UTC","EPHEMERIS_TYPE":"0","ECCENTRICITY":"0.00007470","MEAN_MOTION_DOT":"0.00000702","NORAD_CAT_ID":"51118","EPOCH":"2023-06-30T13:10:49.628928","TLE_LINE2":"2 51118  53.2181  22.6124 0000747  83.1936 276.9141 15.08842192 81563","OBJECT_TYPE":"PAYLOAD","MEAN_MOTION":"15.08842192","INCLINATION":"53.2181","MEAN_MOTION_DDOT":"0.0000000000000","PERIOD":"95.437"},{"MEAN_MOTION":"15.08840556","INCLINATION":"53.2178","MEAN_MOTION_DDOT":"0.0000000000000","OBJECT_TYPE":"PAYLOAD","PERIOD":"95.438","SITE":"AFETR","FILE":"3946046","PERIAPSIS":"538.979","MEAN_ANOMALY":"264.7235","TIME_SYSTEM":"UTC","CENTER_NAME":"EARTH","EPHEMERIS_TYPE":"0","ECCENTRICITY":"0.00011060","ARG_OF_PERICENTER":"95.3884","TLE_LINE1":"1 51119U 22005R   23180.79846451  .00001026  00000-0  82526-4 0  9990","EPOCH":"2023-06-29T19:09:47.333664","TLE_LINE2":"2 51119  53.2178  25.9796 0001106  95.3884 264.7235 15.08840556 81457","MEAN_MOTION_DOT":"0.00001026","NORAD_CAT_ID":"51119","DECAY_DATE":null,"GP_ID":"234632292","SEMIMAJOR_AXIS":"6917.879","LAUNCH_DATE":"2022-01-19","OBJECT_NAME":"STARLINK-3390","MEAN_ELEMENT_THEORY":"SGP4","ELEMENT_SET_NO":"999","REF_FRAME":"TEME","APOAPSIS":"540.509","CLASSIFICATION_TYPE":"U","RA_OF_ASC_NODE":"25.9796","BSTAR":"0.00008252600000","OBJECT_ID":"2022-005R","COUNTRY_CODE":"US","REV_AT_EPOCH":"8145","RCS_SIZE":"LARGE"},{"SITE":"AFETR","FILE":"3945945","MEAN_ANOMALY":"267.9384","PERIAPSIS":"538.860","ECCENTRICITY":"0.00012850","EPHEMERIS_TYPE":"0","CENTER_NAME":"EARTH","TIME_SYSTEM":"UTC","TLE_LINE1":"1 51120U 22005S   23180.79110697 -.00000311  00000-0 -14437-5 0  9993","ARG_OF_PERICENTER":"92.1756","TLE_LINE2":"2 51120  53.2195  26.0125 0001285  92.1756 267.9384 15.08838863 81455","EPOCH":"2023-06-29T18:59:11.642208","NORAD_CAT_ID":"51120","MEAN_MOTION_DOT":"-0.00000311","MEAN_MOTION_DDOT":"0.0000000000000","INCLINATION":"53.2195","MEAN_MOTION":"15.08838863","OBJECT_TYPE":"PAYLOAD","PERIOD":"95.438","CLASSIFICATION_TYPE":"U","RA_OF_ASC_NODE":"26.0125","OBJECT_ID":"2022-005S","BSTAR":"-0.00000144370000","COUNTRY_CODE":"US","REV_AT_EPOCH":"8145","RCS_SIZE":"LARGE","GP_ID":"234630265","DECAY_DATE":null,"SEMIMAJOR_AXIS":"6917.884","LAUNCH_DATE":"2022-01-19","OBJECT_NAME":"STARLINK-3398","MEAN_ELEMENT_THEORY":"SGP4","ELEMENT_SET_NO":"999","APOAPSIS":"540.638","REF_FRAME":"TEME"},{"NORAD_CAT_ID":"51121","MEAN_MOTION_DOT":"0.00001352","TLE_LINE2":"2 51121  53.2173  29.2238 0001140  81.6775 278.4346 15.08843694 81347","EPOCH":"2023-06-29T01:52:31.384992","TLE_LINE1":"1 51121U 22005T   23180.07814103  .00001352  00000-0  10302-3 0  9997","ARG_OF_PERICENTER":"81.6775","ECCENTRICITY":"0.00011400","EPHEMERIS_TYPE":"0","TIME_SYSTEM":"UTC","CENTER_NAME":"EARTH","MEAN_ANOMALY":"278.4346","PERIAPSIS":"538.945","FILE":"3945693","SITE":"AFETR","PERIOD":"95.437","OBJECT_TYPE":"PAYLOAD","MEAN_MOTION_DDOT":"0.0000000000000","INCLINATION":"53.2173","MEAN_MOTION":"15.08843694","REV_AT_EPOCH":"8134","RCS_SIZE":"LARGE","COUNTRY_CODE":"US","OBJECT_ID":"2022-005T","BSTAR":"0.00010302000000","RA_OF_ASC_NODE":"29.2238","CLASSIFICATION_TYPE":"U","APOAPSIS":"540.523","REF_FRAME":"TEME","ELEMENT_SET_NO":"999","MEAN_ELEMENT_THEORY":"SGP4","OBJECT_NAME":"STARLINK-3399","LAUNCH_DATE":"2022-01-19","GP_ID":"234623441","DECAY_DATE":null,"SEMIMAJOR_AXIS":"6917.869"},{"REF_FRAME":"TEME","APOAPSIS":"540.450","ELEMENT_SET_NO":"999","MEAN_ELEMENT_THEORY":"SGP4","OBJECT_NAME":"STARLINK-3373","LAUNCH_DATE":"2022-01-19","GP_ID":"234629758","DECAY_DATE":null,"SEMIMAJOR_AXIS":"6917.882","RCS_SIZE":"LARGE","REV_AT_EPOCH":"8145","COUNTRY_CODE":"US","BSTAR":"0.00006676200000","OBJECT_ID":"2022-005U","RA_OF_ASC_NODE":"26.0008","CLASSIFICATION_TYPE":"U","PERIOD":"95.438","OBJECT_TYPE":"PAYLOAD","INCLINATION":"53.2184","MEAN_MOTION":"15.08839588","MEAN_MOTION_DDOT":"0.0000000000000","MEAN_MOTION_DOT":"0.00000775","NORAD_CAT_ID":"51122","EPOCH":"2023-06-29T19:05:52.174464","TLE_LINE2":"2 51122  53.2184  26.0008 0001017  94.3584 265.7524 15.08839588 81458","ARG_OF_PERICENTER":"94.3584","TLE_LINE1":"1 51122U 22005U   23180.79574276  .00000775  00000-0  66762-4 0  9991","CENTER_NAME":"EARTH","TIME_SYSTEM":"UTC","EPHEMERIS_TYPE":"0","ECCENTRICITY":"0.00010170","PERIAPSIS":"539.043","MEAN_ANOMALY":"265.7524","FILE":"3945945","SITE":"AFETR"},{"CLASSIFICATION_TYPE":"U","RA_OF_ASC_NODE":"22.4616","OBJECT_ID":"2022-005V","BSTAR":"0.00001246200000","COUNTRY_CODE":"US","RCS_SIZE":"LARGE","REV_AT_EPOCH":"8154","GP_ID":"234636845","DECAY_DATE":null,"SEMIMAJOR_AXIS":"6917.882","LAUNCH_DATE":"2022-01-19","OBJECT_NAME":"STARLINK-3392","MEAN_ELEMENT_THEORY":"SGP4","ELEMENT_SET_NO":"999","APOAPSIS":"540.442","REF_FRAME":"TEME","SITE":"AFETR","FILE":"3946214","MEAN_ANOMALY":"265.0129","PERIAPSIS":"539.052","ECCENTRICITY":"0.00010050","EPHEMERIS_TYPE":"0","TIME_SYSTEM":"UTC","CENTER_NAME":"EARTH","TLE_LINE1":"1 51123U 22005V   23181.58230579 -.00000089  00000-0  12462-4 0  9992","ARG_OF_PERICENTER":"95.0978","TLE_LINE2":"2 51123  53.2197  22.4616 0001005  95.0978 265.0129 15.08839452 81544","EPOCH":"2023-06-30T13:58:31.220256","NORAD_CAT_ID":"51123","MEAN_MOTION_DOT":"-0.00000089","MEAN_MOTION_DDOT":"0.0000000000000","MEAN_MOTION":"15.08839452","INCLINATION":"53.2197","OBJECT_TYPE":"PAYLOAD","PERIOD":"95.438"},{"GP_ID":"234618090","DECAY_DATE":null,"SEMIMAJOR_AXIS":"6917.878","LAUNCH_DATE":"2022-01-19","OBJECT_NAME":"STARLINK-3389","MEAN_ELEMENT_THEORY":"SGP4","ELEMENT_SET_NO":"999","REF_FRAME":"TEME","APOAPSIS":"540.633","CLASSIFICATION_TYPE":"U","RA_OF_ASC_NODE":"39.7014","BSTAR":"0.00006179900000","OBJECT_ID":"2022-005W","COUNTRY_CODE":"US","RCS_SIZE":"LARGE","REV_AT_EPOCH":"8119","INCLINATION":"53.2175","MEAN_MOTION":"15.08840930","MEAN_MOTION_DDOT":"0.0000000000000","OBJECT_TYPE":"PAYLOAD","PERIOD":"95.437","SITE":"AFETR","FILE":"3945453","PERIAPSIS":"538.852","MEAN_ANOMALY":"276.9045","TIME_SYSTEM":"UTC","CENTER_NAME":"EARTH","EPHEMERIS_TYPE":"0","ECCENTRICITY":"0.00012870","ARG_OF_PERICENTER":"83.2093","TLE_LINE1":"1 51124U 22005W   23179.96954427  .00000696  00000-0  61799-4 0  9997","EPOCH":"2023-06-28T23:16:08.624928","TLE_LINE2":"2 51124  53.2175  39.7014 0001287  83.2093 276.9045 15.08840930 81195","MEAN_MOTION_DOT":"0.00000696","NORAD_CAT_ID":"51124"},{"OBJECT_TYPE":"PAYLOAD","INCLINATION":"53.2180","MEAN_MOTION":"15.08836749","MEAN_MOTION_DDOT":"0.0000000000000","PERIOD":"95.438","ARG_OF_PERICENTER":"91.5322","TLE_LINE1":"1 51125U 22005X   23181.54922444  .00000384  00000-0  42189-4 0  9995","TIME_SYSTEM":"UTC","CENTER_NAME":"EARTH","ECCENTRICITY":"0.00011430","EPHEMERIS_TYPE":"0","MEAN_MOTION_DOT":"0.00000384","NORAD_CAT_ID":"51125","EPOCH":"2023-06-30T13:10:52.991616","TLE_LINE2":"2 51125  53.2180  32.6196 0001143  91.5322 268.5801 15.08836749 81429","FILE":"3946215","SITE":"AFETR","PERIAPSIS":"538.965","MEAN_ANOMALY":"268.5801","MEAN_ELEMENT_THEORY":"SGP4","REF_FRAME":"TEME","APOAPSIS":"540.546","ELEMENT_SET_NO":"999","GP_ID":"234636851","DECAY_DATE":null,"SEMIMAJOR_AXIS":"6917.890","OBJECT_NAME":"STARLINK-3387","LAUNCH_DATE":"2022-01-19","COUNTRY_CODE":"US","BSTAR":"0.00004218900000","OBJECT_ID":"2022-005X","REV_AT_EPOCH":"8142","RCS_SIZE":"LARGE","CLASSIFICATION_TYPE":"U","RA_OF_ASC_NODE":"32.6196"}];
